GLOBALSTAR M068         
1 32266U 07048D   24182.74533049 -.00000056  00000+0  26774-3 0  9990
2 32266  51.9897 293.5433 0001518 102.8907  49.2775 12.62792785773157
GLOBALSTAR M079         
1 37188U 10054A   24182.90802222 -.00000085  00000+0  10358-3 0  9992
2 37188  52.0028 129.1343 0000247 358.3336  24.0929 12.62271394632096
GLOBALSTAR M074         
1 37189U 10054B   24182.86086255 -.00000089  00000+0  83230-4 0  9992
2 37189  52.0005 128.6561 0000442  36.3116  10.7644 12.62269894632698
GLOBALSTAR M076         
1 37190U 10054C   24182.43620736 -.00000097  00000+0  36620-4 0  9995
2 37190  52.0017 130.0866 0000587 346.7133 170.6136 12.62262309632354
GLOBALSTAR M077         
1 37191U 10054D   24182.96080715 -.00000096  00000+0  45179-4 0  9999
2 37191  52.0076  85.2451 0000731  49.3401  33.0359 12.62274197632791
GLOBALSTAR M075         
1 37192U 10054E   24182.69020825 -.00000087  00000+0  93241-4 0  9999
2 37192  51.9919 171.7669 0000077  51.6466 120.3512 12.62261258631613
GLOBALSTAR M073         
1 37193U 10054F   24182.90767531 -.00000096  00000+0  40780-4 0  9996
2 37193  52.0065  84.6574 0000634  43.5804  35.6841 12.62266495633477
GLOBALSTAR M083         
1 37739U 11033A   24182.90603443 -.00000081  00000+0  12656-3 0  9995
2 37739  51.9872  33.8716 0000800  94.4395 279.3127 12.62261518602499
GLOBALSTAR M088         
1 37740U 11033B   24182.83389521 -.00000093  00000+0  60731-4 0  9998
2 37740  51.9747 299.8797 0000774 133.3125  32.3579 12.62264669598020
GLOBALSTAR M091         
1 37741U 11033C   24182.68744795 -.00000094  00000+0  56063-4 0  9994
2 37741  51.9995 263.2552 0000781 154.6194   3.8422 12.62264310598797
GLOBALSTAR M085         
1 37742U 11033D   24182.83487735 -.00000088  00000+0  88625-4 0  9992
2 37742  51.9843 214.1529 0000412 175.3588 354.8568 12.62263074599323
GLOBALSTAR M081         
1 37743U 11033E   24182.86180442 -.00000069  00000+0  19366-3 0  9995
2 37743  51.9931 216.6423 0000421 204.5800 327.1697 12.62266633599470
GLOBALSTAR M089         
1 37744U 11033F   24182.94837003 -.00000082  00000+0  12169-3 0  9996
2 37744  51.9903 170.6731 0000422 343.8103  40.0918 12.62265522600336
GLOBALSTAR M084         
1 38040U 11080A   24182.87967338 -.00000097  00000+0  36447-4 0  9997
2 38040  52.0023  37.9815 0000949  61.0042 312.0493 12.62263859578306
GLOBALSTAR M080         
1 38041U 11080B   24182.95985106 -.00000088  00000+0  86874-4 0  9999
2 38041  52.0075  39.2202 0000786  47.0518  90.9434 12.62262399578439
GLOBALSTAR M082         
1 38042U 11080C   24182.89619729 -.00000090  00000+0  79544-4 0  9997
2 38042  52.0092 354.8242 0001346 113.6784  34.3205 12.62270751579134
GLOBALSTAR M092         
1 38043U 11080D   24182.93409531 -.00000109  00000+0 -28678-4 0  9995
2 38043  52.0090  85.0647 0000787  55.6480  25.3231 12.62263044577595
GLOBALSTAR M090         
1 38044U 11080E   24182.91656712 -.00000085  00000+0  10365-3 0  9994
2 38044  51.9903 349.0236 0001020 111.4612   8.9992 12.62264467579259
GLOBALSTAR M086         
1 38045U 11080F   24182.87048618 -.00000091  00000+0  73811-4 0  9993
2 38045  51.9915 349.6863 0000308 190.7147 321.0718 12.62263758579196
GLOBALSTAR M097         
1 39072U 13005A   24182.62655935 -.00000093  00000+0  57625-4 0  9999
2 39072  52.0045 264.6245 0000646 157.2603 202.8292 12.62263984526414
GLOBALSTAR M093         
1 39073U 13005B   24182.91657918 -.00000091  00000+0  70892-4 0  9994
2 39073  51.9803 257.6048 0000693 172.0511 188.0366 12.62275528526406
GLOBALSTAR M094         
1 39074U 13005C   24182.67896223 -.00000090  00000+0  76369-4 0  9996
2 39074  51.9929 172.3557 0000156 226.1319 133.9534 12.62267352527981
GLOBALSTAR M096         
1 39075U 13005D   24182.85048335 -.00000085  00000+0  10208-3 0  9993
2 39075  52.0049 220.0753 0000556 183.4193 176.6670 12.62267381526925
GLOBALSTAR M078         
1 39076U 13005E   24182.74509472 -.00000170  00000+0 -37079-3 0  9997
2 39076  51.9891 305.3854 0001625 118.6742 241.4288 12.62270959525533
GLOBALSTAR M095         
1 39077U 13005F   24182.61267499 -.00000161  00000+0 -31821-3 0  9993
2 39077  51.9813 303.1563 0001259 139.0493 221.0469 12.62261541525378
GLOBALSTAR M087         
1 52888U 22064A   24182.63362946 -.00000090  00000+0  72153-4 0  9992
2 52888  51.9737 161.4935 0009664  39.4865 320.6739 13.37577395 99327
